[{"OBJECT_NAME":"STARLINK-37124","OBJECT_ID":"2026-055X","EPOCH":"2026-03-30T04:00:01.999584","MEAN_MOTION":15.94113327,"ECCENTRICITY":8.28e-5,"INCLINATION":53.1572,"RA_OF_ASC_NODE":234.7004,"ARG_OF_PERICENTER":62.4713,"MEAN_ANOMALY":158.2696,"EPHEMERIS_TYPE":0,"CLASSIFICATION_TYPE":"U","NORAD_CAT_ID":68283,"ELEMENT_SET_NO":999,"REV_AT_EPOCH":292,"BSTAR":-0.0039934,"MEAN_MOTION_DOT":-0.01510529,"MEAN_MOTION_DDOT":0.00066179},{"OBJECT_NAME":"STARLINK-37159","OBJECT_ID":"2026-055Y","EPOCH":"2026-03-30T04:00:01.999584","MEAN_MOTION":15.94195565,"ECCENTRICITY":8.52e-5,"INCLINATION":53.1573,"RA_OF_ASC_NODE":234.6918,"ARG_OF_PERICENTER":73.3472,"MEAN_ANOMALY":151.4722,"EPHEMERIS_TYPE":0,"CLASSIFICATION_TYPE":"U","NORAD_CAT_ID":68284,"ELEMENT_SET_NO":999,"REV_AT_EPOCH":292,"BSTAR":-0.0040007,"MEAN_MOTION_DOT":-0.01519812,"MEAN_MOTION_DDOT":0.0006698},{"OBJECT_NAME":"STARLINK-36725","OBJECT_ID":"2026-055Z","EPOCH":"2026-03-30T04:00:01.999584","MEAN_MOTION":15.94283117,"ECCENTRICITY":9.51e-5,"INCLINATION":53.1569,"RA_OF_ASC_NODE":234.6841,"ARG_OF_PERICENTER":68.9404,"MEAN_ANOMALY":159.2511,"EPHEMERIS_TYPE":0,"CLASSIFICATION_TYPE":"U","NORAD_CAT_ID":68285,"ELEMENT_SET_NO":999,"REV_AT_EPOCH":292,"BSTAR":-0.0039551,"MEAN_MOTION_DOT":-0.01509658,"MEAN_MOTION_DDOT":0.00066221},{"OBJECT_NAME":"STARLINK-36998","OBJECT_ID":"2026-055AA","EPOCH":"2026-03-30T04:00:01.999584","MEAN_MOTION":15.94454666,"ECCENTRICITY":8.22e-5,"INCLINATION":53.1577,"RA_OF_ASC_NODE":234.6688,"ARG_OF_PERICENTER":72.2177,"MEAN_ANOMALY":164.1358,"EPHEMERIS_TYPE":0,"CLASSIFICATION_TYPE":"U","NORAD_CAT_ID":68286,"ELEMENT_SET_NO":999,"REV_AT_EPOCH":292,"BSTAR":-0.0039609,"MEAN_MOTION_DOT":-0.01525524,"MEAN_MOTION_DDOT":0.00067618},{"OBJECT_NAME":"STARLINK-37165","OBJECT_ID":"2026-055AB","EPOCH":"2026-03-30T04:00:01.999584","MEAN_MOTION":15.94552287,"ECCENTRICITY":7.6e-5,"INCLINATION":53.1573,"RA_OF_ASC_NODE":234.6593,"ARG_OF_PERICENTER":69.3578,"MEAN_ANOMALY":170.8195,"EPHEMERIS_TYPE":0,"CLASSIFICATION_TYPE":"U","NORAD_CAT_ID":68287,"ELEMENT_SET_NO":999,"REV_AT_EPOCH":292,"BSTAR":-0.0039697,"MEAN_MOTION_DOT":-0.01536775,"MEAN_MOTION_DDOT":0.00068602},{"OBJECT_NAME":"STARLINK-37016","OBJECT_ID":"2026-055AC","EPOCH":"2026-03-30T04:00:01.999584","MEAN_MOTION":15.94367251,"ECCENTRICITY":8.96e-5,"INCLINATION":53.1571,"RA_OF_ASC_NODE":234.6765,"ARG_OF_PERICENTER":67.1969,"MEAN_ANOMALY":164.8695,"EPHEMERIS_TYPE":0,"CLASSIFICATION_TYPE":"U","NORAD_CAT_ID":68288,"ELEMENT_SET_NO":999,"REV_AT_EPOCH":292,"BSTAR":-0.0039404,"MEAN_MOTION_DOT":-0.0151077,"MEAN_MOTION_DDOT":0.00066367},{"OBJECT_NAME":"STARLINK-37010","OBJECT_ID":"2026-055AD","EPOCH":"2026-03-30T04:00:01.999584","MEAN_MOTION":15.94650655,"ECCENTRICITY":6.75e-5,"INCLINATION":53.1574,"RA_OF_ASC_NODE":234.6516,"ARG_OF_PERICENTER":70.1472,"MEAN_ANOMALY":173.4644,"EPHEMERIS_TYPE":0,"CLASSIFICATION_TYPE":"U","NORAD_CAT_ID":68289,"ELEMENT_SET_NO":999,"REV_AT_EPOCH":292,"BSTAR":-0.0039597,"MEAN_MOTION_DOT":-0.01540914,"MEAN_MOTION_DDOT":0.00069009},{"OBJECT_NAME":"STARLINK-37151","OBJECT_ID":"2026-055AE","EPOCH":"2026-03-30T04:00:01.999584","MEAN_MOTION":15.94741398,"ECCENTRICITY":6.51e-5,"INCLINATION":53.1569,"RA_OF_ASC_NODE":234.6457,"ARG_OF_PERICENTER":68.4784,"MEAN_ANOMALY":178.2162,"EPHEMERIS_TYPE":0,"CLASSIFICATION_TYPE":"U","NORAD_CAT_ID":68290,"ELEMENT_SET_NO":999,"REV_AT_EPOCH":292,"BSTAR":-0.0038633,"MEAN_MOTION_DOT":-0.01511098,"MEAN_MOTION_DDOT":0.00066643},{"OBJECT_NAME":"STRIX-6","OBJECT_ID":"2026-056A","EPOCH":"2026-03-30T01:05:22.807968","MEAN_MOTION":14.99622294,"ECCENTRICITY":0.0016603,"INCLINATION":50.2845,"RA_OF_ASC_NODE":3.7553,"ARG_OF_PERICENTER":300.7517,"MEAN_ANOMALY":59.1797,"EPHEMERIS_TYPE":0,"CLASSIFICATION_TYPE":"U","NORAD_CAT_ID":68291,"ELEMENT_SET_NO":999,"REV_AT_EPOCH":139,"BSTAR":0.00057993,"MEAN_MOTION_DOT":6.987e-5,"MEAN_MOTION_DDOT":0},{"OBJECT_NAME":"ELECTRON R/B","OBJECT_ID":"2026-056B","EPOCH":"2026-03-30T03:05:50.764992","MEAN_MOTION":16.09220014,"ECCENTRICITY":0.0140198,"INCLINATION":50.2563,"RA_OF_ASC_NODE":357.388,"ARG_OF_PERICENTER":286.7867,"MEAN_ANOMALY":71.7787,"EPHEMERIS_TYPE":0,"CLASSIFICATION_TYPE":"U","NORAD_CAT_ID":68292,"ELEMENT_SET_NO":999,"REV_AT_EPOCH":148,"BSTAR":0.0011361,"MEAN_MOTION_DOT":0.05326564,"MEAN_MOTION_DDOT":1.1475e-5},{"OBJECT_NAME":"ELECTRON KICK STAGE R/B","OBJECT_ID":"2026-056C","EPOCH":"2026-03-30T03:12:49.543200","MEAN_MOTION":15.39912343,"ECCENTRICITY":0.015649,"INCLINATION":50.2932,"RA_OF_ASC_NODE":0.5823,"ARG_OF_PERICENTER":48.7994,"MEAN_ANOMALY":312.6343,"EPHEMERIS_TYPE":0,"CLASSIFICATION_TYPE":"U","NORAD_CAT_ID":68293,"ELEMENT_SET_NO":999,"REV_AT_EPOCH":145,"BSTAR":0.0017018,"MEAN_MOTION_DOT":0.00107712,"MEAN_MOTION_DDOT":0},{"OBJECT_NAME":"STARLINK-37107","OBJECT_ID":"2026-057A","EPOCH":"2026-03-30T04:00:01.999584","MEAN_MOTION":15.98553135,"ECCENTRICITY":0.0001323,"INCLINATION":97.2807,"RA_OF_ASC_NODE":212.4007,"ARG_OF_PERICENTER":59.982,"MEAN_ANOMALY":272.1824,"EPHEMERIS_TYPE":0,"CLASSIFICATION_TYPE":"U","NORAD_CAT_ID":68294,"ELEMENT_SET_NO":999,"REV_AT_EPOCH":245,"BSTAR":-0.0024499,"MEAN_MOTION_DOT":-0.01139955,"MEAN_MOTION_DDOT":0.0004111},{"OBJECT_NAME":"STARLINK-37147","OBJECT_ID":"2026-057B","EPOCH":"2026-03-30T04:00:01.999584","MEAN_MOTION":15.98641353,"ECCENTRICITY":0.0001281,"INCLINATION":97.2804,"RA_OF_ASC_NODE":212.4015,"ARG_OF_PERICENTER":58.133,"MEAN_ANOMALY":276.7495,"EPHEMERIS_TYPE":0,"CLASSIFICATION_TYPE":"U","NORAD_CAT_ID":68295,"ELEMENT_SET_NO":999,"REV_AT_EPOCH":244,"BSTAR":-0.0024322,"MEAN_MOTION_DOT":-0.01137277,"MEAN_MOTION_DDOT":0.00040971},{"OBJECT_NAME":"STARLINK-37142","OBJECT_ID":"2026-057C","EPOCH":"2026-03-30T04:00:01.999584","MEAN_MOTION":15.98951647,"ECCENTRICITY":0.0001338,"INCLINATION":97.28,"RA_OF_ASC_NODE":212.4052,"ARG_OF_PERICENTER":55.8292,"MEAN_ANOMALY":288.12,"EPHEMERIS_TYPE":0,"CLASSIFICATION_TYPE":"U","NORAD_CAT_ID":68296,"ELEMENT_SET_NO":999,"REV_AT_EPOCH":233,"BSTAR":-0.0024072,"MEAN_MOTION_DOT":-0.01145138,"MEAN_MOTION_DDOT":0.00041639},{"OBJECT_NAME":"STARLINK-37115","OBJECT_ID":"2026-057D","EPOCH":"2026-03-30T04:00:01.999584","MEAN_MOTION":15.98850965,"ECCENTRICITY":0.0001328,"INCLINATION":97.2798,"RA_OF_ASC_NODE":212.4033,"ARG_OF_PERICENTER":56.5695,"MEAN_ANOMALY":284.6103,"EPHEMERIS_TYPE":0,"CLASSIFICATION_TYPE":"U","NORAD_CAT_ID":68297,"ELEMENT_SET_NO":999,"REV_AT_EPOCH":233,"BSTAR":-0.0024157,"MEAN_MOTION_DOT":-0.01142785,"MEAN_MOTION_DDOT":0.00041434},{"OBJECT_NAME":"STARLINK-36355","OBJECT_ID":"2026-057E","EPOCH":"2026-03-30T04:00:01.999584","MEAN_MOTION":15.98743733,"ECCENTRICITY":0.0001186,"INCLINATION":97.2801,"RA_OF_ASC_NODE":212.4021,"ARG_OF_PERICENTER":62.8372,"MEAN_ANOMALY":274.8635,"EPHEMERIS_TYPE":0,"CLASSIFICATION_TYPE":"U","NORAD_CAT_ID":68298,"ELEMENT_SET_NO":999,"REV_AT_EPOCH":260,"BSTAR":-0.0024318,"MEAN_MOTION_DOT":-0.01143507,"MEAN_MOTION_DDOT":0.00041434}]
